OBJECT_NAME,OBJECT_ID,EPOCH,MEAN_MOTION,ECCENTRICITY,INCLINATION,RA_OF_ASC_NODE,ARG_OF_PERICENTER,MEAN_ANOMALY,EPHEMERIS_TYPE,CLASSIFICATION_TYPE,NORAD_CAT_ID,ELEMENT_SET_NO,REV_AT_EPOCH,BSTAR,MEAN_MOTION_DOT,MEAN_MOTION_DDOT
STARLINK-34307,2025-133T,2026-06-18T20:11:36.019968,15.30195070,.00011702,53.1593,7.0641,102.8335,257.2797,0,U,64489,999,5665,.42074519E-3,.12121E-3,0
STARLINK-34505,2025-133U,2026-06-18T20:07:02.401536,15.30200325,.00011366,53.1593,7.0427,90.8407,269.2724,0,U,64490,999,5665,.4359587E-3,.12575E-3,0
STARLINK-34530,2025-133V,2026-06-18T19:24:16.021728,15.34375102,.00010556,53.1606,4.0203,97.2026,262.9097,0,U,64491,999,5668,-.51601991E-3,-.17756E-3,0
STARLINK-34522,2025-133W,2026-06-18T19:18:14.420448,15.34402544,.00018838,53.1609,3.9944,103.4531,256.6682,0,U,64492,999,5671,.58889476E-3,.19574E-3,0
STARLINK-34462,2025-133X,2026-06-18T19:15:12.663360,15.34405523,.00013032,53.1612,3.9833,78.3908,281.7241,0,U,64493,999,5671,.5908919E-3,.19644E-3,0
STARLINK-34226,2025-133Y,2026-06-18T19:18:44.565408,15.31720764,.00020863,53.1652,6.8366,77.0987,283.0248,0,U,64494,999,5650,.51656209E-3,.15709E-3,0
STARLINK-34364,2025-133Z,2026-06-18T19:36:17.081568,15.34403197,.000098,53.1599,3.3441,89.9359,270.1756,0,U,64495,999,5672,.56659988E-3,.18817E-3,0
STARLINK-34363,2025-133AB,2026-06-18T19:06:07.342848,15.34408824,.00012299,53.1607,3.9405,88.7458,271.3685,0,U,64497,999,5671,.77854686E-3,.26027E-3,0
STARLINK-34427,2025-133AC,2026-06-18T19:33:36.499392,15.30202686,.00016942,53.1631,6.8978,87.0957,273.0238,0,U,64498,999,5667,.49219381E-3,.14247E-3,0
STARLINK-34280,2025-137A,2026-06-18T22:00:01.999584,15.34257437,.00027522,53.1577,224.9750,320.7216,62.6797,0,U,64594,999,589,.13532219E-2,.45417E-3,0
STARLINK-34517,2025-137B,2026-06-18T10:42:18.357984,15.34391063,.0000542,53.1586,227.0573,36.5850,323.5189,0,U,64595,999,5616,.57191E-3,.1899E-3,0
STARLINK-34510,2025-137C,2026-06-18T18:58:35.421600,15.34290007,.00016843,53.1574,225.6547,94.3828,265.7367,0,U,64596,999,5621,.42445027E-2,.145327E-2,0
STARLINK-34486,2025-137D,2026-06-18T21:23:05.297856,15.30209455,.00006814,53.1577,225.5673,16.1104,343.9918,0,U,64597,999,5622,.39887756E-3,.11476E-3,0
STARLINK-34463,2025-137E,2026-06-18T07:37:44.510592,15.34399639,.0000974,53.1576,227.6754,82.1096,278.0017,0,U,64598,999,5614,.31849E-3,.10399E-3,0
STARLINK-34294,2025-137F,2026-06-18T22:00:01.999584,15.34381220,.00011727,53.1571,224.9956,91.7259,279.8173,0,U,64599,999,561,.24599724E-3,.7939E-4,0
STARLINK-34504,2025-137G,2026-06-18T21:20:03.050016,15.30216207,.00005011,53.1589,225.5574,347.8349,12.2639,0,U,64600,999,5622,.73173265E-3,.21386E-3,0
STARLINK-34508,2025-137H,2026-06-18T10:50:23.239104,15.30204657,.0000489,53.1565,227.0890,81.7244,278.3812,0,U,64601,999,5616,.32925E-3,.9406E-4,0
STARLINK-34435,2025-137J,2026-06-18T22:00:01.999584,15.33537610,.00018151,53.1583,225.1213,88.8855,217.3040,0,U,64602,999,561,.33683943E-3,.10717E-3,0
STARLINK-34475,2025-137K,2026-06-18T10:46:16.563648,15.33559872,.0000506,53.1582,227.0711,57.8147,302.2904,0,U,64603,999,5616,.35292E-3,.11256E-3,0
STARLINK-34488,2025-137L,2026-06-18T10:45:49.885920,15.30196733,.0001142,53.1583,227.0743,104.8163,255.2964,0,U,64604,999,5616,.2161E-3,.6046E-4,0
STARLINK-34516,2025-137M,2026-06-18T10:45:28.947744,15.31714599,.0001058,53.1569,226.3600,79.1690,280.9431,0,U,64605,999,5627,.33353E-3,.10003E-3,0
STARLINK-34073,2025-137N,2026-06-18T12:13:48.113760,15.30210885,.0000567,53.1569,226.7379,33.7221,326.3816,0,U,64606,999,5605,.39872E-3,.11472E-3,0
STARLINK-34532,2025-137P,2026-06-18T21:48:03.652704,15.34408153,.00004301,53.1606,234.9034,78.4804,281.6247,0,U,64607,999,5609,.46034835E-3,.15213E-3,0
STARLINK-34519,2025-137Q,2026-06-18T20:23:49.386624,15.30204350,.0001003,53.1564,225.3112,45.1250,314.9832,0,U,64608,999,5622,.3033458E-3,.8637E-4,0
STARLINK-34513,2025-137R,2026-06-18T20:19:16.707360,15.30192863,.00011672,53.1574,225.2870,99.7302,260.3831,0,U,64609,999,5631,.41584851E-3,.11974E-3,0
STARLINK-34569,2025-137S,2026-06-18T12:37:18.520320,15.34404742,.0000908,53.1583,226.8452,98.3495,261.7610,0,U,64610,999,5617,.57283E-3,.1903E-3,0
STARLINK-34494,2025-137T,2026-06-18T22:00:01.999584,15.34374864,.00006404,53.1580,224.9009,91.8798,326.1757,0,U,64611,999,589,.30991035E-3,.10101E-3,0
STARLINK-34521,2025-137U,2026-06-18T20:17:44.422656,15.30208148,.00001423,53.1569,225.2828,100.5831,259.5185,0,U,64612,999,5622,.41121672E-3,.11843E-3,0
STARLINK-34500,2025-137V,2026-06-18T10:51:23.611104,15.34398641,.0000949,53.1571,227.0906,358.9763,1.1237,0,U,64613,999,5626,.53451E-3,.17725E-3,0
STARLINK-34440,2025-137W,2026-06-18T20:40:32.735136,15.30214289,.00016682,53.1570,225.3797,78.4434,281.6754,0,U,64614,999,5622,.51757642E-3,.15008E-3,0
