STARLINK-34307          
1 64489U 25133T   26169.84138912  .00012121  00000+0  42075-3 0  9992
2 64489  53.1593   7.0641 0001170 102.8335 257.2797 15.30195070 56650
STARLINK-34505          
1 64490U 25133U   26169.83822224  .00012575  00000+0  43596-3 0  9991
2 64490  53.1593   7.0427 0001136  90.8407 269.2724 15.30200325 56655
STARLINK-34530          
1 64491U 25133V   26169.80851877 -.00017756  00000+0 -51602-3 0  9990
2 64491  53.1606   4.0203 0001055  97.2026 262.9097 15.34375102 56684
STARLINK-34522          
1 64492U 25133W   26169.80433357  .00019574  00000+0  58889-3 0  9992
2 64492  53.1609   3.9944 0001883 103.4531 256.6682 15.34402544 56713
STARLINK-34462          
1 64493U 25133X   26169.80222990  .00019644  00000+0  59089-3 0  9993
2 64493  53.1612   3.9833 0001303  78.3908 281.7241 15.34405523 56710
STARLINK-34226          
1 64494U 25133Y   26169.80468247  .00015709  00000+0  51656-3 0  9991
2 64494  53.1652   6.8366 0002086  77.0987 283.0248 15.31720764 56503
STARLINK-34364          
1 64495U 25133Z   26169.81686437  .00018817  00000+0  56660-3 0  9999
2 64495  53.1599   3.3441 0000980  89.9359 270.1756 15.34403197 56722
STARLINK-34363          
1 64497U 25133AB  26169.79591832  .00026027  00000+0  77855-3 0  9993
2 64497  53.1607   3.9405 0001229  88.7458 271.3685 15.34408824 56719
STARLINK-34427          
1 64498U 25133AC  26169.81500578  .00014247  00000+0  49219-3 0  9998
2 64498  53.1631   6.8978 0001694  87.0957 273.0238 15.30202686 56678
STARLINK-34280          
1 64594U 25137A   26169.91668981  .00045417  00000+0  13532-2 0  9994
2 64594  53.1577 224.9750 0002752 320.7216  62.6797 15.34257437  5894
STARLINK-34517          
1 64595U 25137B   26169.44604581  .00018990  00000+0  57191-3 0  9995
2 64595  53.1586 227.0573 0000542  36.5850 323.5189 15.34391063 56167
STARLINK-34510          
1 64596U 25137C   26169.79068775  .00145327  00000+0  42445-2 0  9993
2 64596  53.1574 225.6547 0001684  94.3828 265.7367 15.34290007 56212
STARLINK-34486          
1 64597U 25137D   26169.89103354  .00011476  00000+0  39888-3 0  9993
2 64597  53.1577 225.5673 0000681  16.1104 343.9918 15.30209455 56225
STARLINK-34463          
1 64598U 25137E   26169.31787628  .00010399  00000+0  31849-3 0  9995
2 64598  53.1576 227.6754 0000974  82.1096 278.0017 15.34399639 56143
STARLINK-34294          
1 64599U 25137F   26169.91668981  .00007939  00000+0  24600-3 0  9995
2 64599  53.1571 224.9956 0001172  91.7259 279.8173 15.34381220  5616
STARLINK-34504          
1 64600U 25137G   26169.88892419  .00021386  00000+0  73173-3 0  9990
2 64600  53.1589 225.5574 0000501 347.8349  12.2639 15.30216207 56228
STARLINK-34508          
1 64601U 25137H   26169.45165786  .00009406  00000+0  32925-3 0  9993
2 64601  53.1565 227.0890 0000489  81.7244 278.3812 15.30204657 56161
STARLINK-34435          
1 64602U 25137J   26169.91668981  .00010717  00000+0  33684-3 0  9990
2 64602  53.1583 225.1213 0001815  88.8855 217.3040 15.33537610  5611
STARLINK-34475          
1 64603U 25137K   26169.44880282  .00011256  00000+0  35292-3 0  9995
2 64603  53.1582 227.0711 0000506  57.8147 302.2904 15.33559872 56164
STARLINK-34488          
1 64604U 25137L   26169.44849405  .00006046  00000+0  21610-3 0  9998
2 64604  53.1583 227.0743 0001142 104.8163 255.2964 15.30196733 56162
STARLINK-34516          
1 64605U 25137M   26169.44825171  .00010003  00000+0  33353-3 0  9998
2 64605  53.1569 226.3600 0001058  79.1690 280.9431 15.31714599 56279
STARLINK-34073          
1 64606U 25137N   26169.50958465  .00011472  00000+0  39872-3 0  9992
2 64606  53.1569 226.7379 0000567  33.7221 326.3816 15.30210885 56053
STARLINK-34532          
1 64607U 25137P   26169.90837561  .00015213  00000+0  46035-3 0  9996
2 64607  53.1606 234.9034 0000430  78.4804 281.6247 15.34408153 56093
STARLINK-34519          
1 64608U 25137Q   26169.84987716  .00008637  00000+0  30335-3 0  9996
2 64608  53.1564 225.3112 0001003  45.1250 314.9832 15.30204350 56225
STARLINK-34513          
1 64609U 25137R   26169.84672115  .00011974  00000+0  41585-3 0  9998
2 64609  53.1574 225.2870 0001167  99.7302 260.3831 15.30192863 56319
STARLINK-34569          
1 64610U 25137S   26169.52590880  .00019030  00000+0  57283-3 0  9996
2 64610  53.1583 226.8452 0000908  98.3495 261.7610 15.34404742 56174
STARLINK-34494          
1 64611U 25137T   26169.91668981  .00010101  00000+0  30991-3 0  9995
2 64611  53.1580 224.9009 0000640  91.8798 326.1757 15.34374864  5898
STARLINK-34521          
1 64612U 25137U   26169.84565304  .00011843  00000+0  41122-3 0  9995
2 64612  53.1569 225.2828 0000142 100.5831 259.5185 15.30208148 56226
STARLINK-34500          
1 64613U 25137V   26169.45235661  .00017725  00000+0  53451-3 0  9996
2 64613  53.1571 227.0906 0000949 358.9763   1.1237 15.34398641 56260
STARLINK-34440          
1 64614U 25137W   26169.86148999  .00015008  00000+0  51758-3 0  9999
2 64614  53.1570 225.3797 0001668  78.4434 281.6754 15.30214289 56223
